{
  "type": "FeatureCollection",
  "features": [
    {
      "type": "Feature",
      "properties": {
        "norad_id": 37836,
        "name": "EUTELSAT 16A",
        "group": "eutelsat",
        "lat": -0.06820708237845731,
        "lon": -150.973395202451,
        "alt_km": 35773.8656040307,
        "timestamp": "2025-12-19T06:59:43.575179+00:00",
        "meta_object_name": "EUTELSAT 16A",
        "meta_object_id": "2011-057A",
        "meta_epoch": "2025-12-18T20:13:07.334400",
        "meta_mean_motion": 1.00269993,
        "meta_eccentricity": 0.00058058,
        "meta_inclination": 0.0615,
        "meta_ra_of_asc_node": 334.1272,
        "meta_arg_of_pericenter": 293.9296,
        "meta_mean_anomaly": 138.9475,
        "meta_ephemeris_type": 0,
        "meta_classification_type": "U",
        "meta_norad_cat_id": 37836,
        "meta_element_set_no": 999,
        "meta_rev_at_epoch": 551,
        "meta_bstar": 0,
        "meta_mean_motion_dot": 1.29e-06,
        "meta_mean_motion_ddot": 0,
        "tle_line1": "1 37836U 11057A   25352.84244600  .00000129  00000+0  00000+0 0  9996",
        "tle_line2": "2 37836   0.0615 334.1272 0005805 293.9296 138.9475  1.00269993  5518"
      },
      "geometry": {
        "type": "Point",
        "coordinates": [
          -150.973395202451,
          -0.06820708237845731
        ]
      }
    },
    {
      "type": "Feature",
      "properties": {
        "norad_id": 38992,
        "name": "EUTELSAT 21B",
        "group": "eutelsat",
        "lat": -0.07946627096924598,
        "lon": -145.35506506038246,
        "alt_km": 35779.753144219445,
        "timestamp": "2025-12-19T06:59:43.575190+00:00",
        "meta_object_name": "EUTELSAT 21B",
        "meta_object_id": "2012-062B",
        "meta_epoch": "2025-12-18T23:17:38.719392",
        "meta_mean_motion": 1.00267672,
        "meta_eccentricity": 0.00032532,
        "meta_inclination": 0.0704,
        "meta_ra_of_asc_node": 336.683,
        "meta_arg_of_pericenter": 295.3091,
        "meta_mean_anomaly": 186.8638,
        "meta_ephemeris_type": 0,
        "meta_classification_type": "U",
        "meta_norad_cat_id": 38992,
        "meta_element_set_no": 999,
        "meta_rev_at_epoch": 4802,
        "meta_bstar": 0,
        "meta_mean_motion_dot": 1.55e-06,
        "meta_mean_motion_ddot": 0,
        "tle_line1": "1 38992U 12062B   25352.97058703  .00000155  00000+0  00000+0 0  9997",
        "tle_line2": "2 38992   0.0704 336.6830 0003253 295.3091 186.8638  1.00267672 48020"
      },
      "geometry": {
        "type": "Point",
        "coordinates": [
          -145.35506506038246,
          -0.07946627096924598
        ]
      }
    },
    {
      "type": "Feature",
      "properties": {
        "norad_id": 39020,
        "name": "EUTELSAT 70B",
        "group": "eutelsat",
        "lat": -0.08767791877362689,
        "lon": -96.43591636618142,
        "alt_km": 35768.360626893336,
        "timestamp": "2025-12-19T06:59:43.575202+00:00",
        "meta_object_name": "EUTELSAT 70B",
        "meta_object_id": "2012-069A",
        "meta_epoch": "2025-12-18T22:12:38.740896",
        "meta_mean_motion": 1.00271312,
        "meta_eccentricity": 0.00042955,
        "meta_inclination": 0.0608,
        "meta_ra_of_asc_node": 0.7537,
        "meta_arg_of_pericenter": 251.5762,
        "meta_mean_anomaly": 239.1053,
        "meta_ephemeris_type": 0,
        "meta_classification_type": "U",
        "meta_norad_cat_id": 39020,
        "meta_element_set_no": 999,
        "meta_rev_at_epoch": 4770,
        "meta_bstar": 0,
        "meta_mean_motion_dot": -1.8e-07,
        "meta_mean_motion_ddot": 0,
        "tle_line1": "1 39020U 12069A   25352.92544839 -.00000018  00000+0  00000+0 0  9991",
        "tle_line2": "2 39020   0.0608   0.7537 0004295 251.5762 239.1053  1.00271312 47708"
      },
      "geometry": {
        "type": "Point",
        "coordinates": [
          -96.43591636618142,
          -0.08767791877362689
        ]
      }
    },
    {
      "type": "Feature",
      "properties": {
        "norad_id": 39122,
        "name": "EUTELSAT 117 WEST A",
        "group": "eutelsat",
        "lat": 0.03397190171431405,
        "lon": 76.27958355882147,
        "alt_km": 35796.73972288833,
        "timestamp": "2025-12-19T06:59:43.575232+00:00",
        "meta_object_name": "EUTELSAT 117 WEST A",
        "meta_object_id": "2013-012A",
        "meta_epoch": "2025-12-18T23:00:43.782048",
        "meta_mean_motion": 1.00272954,
        "meta_eccentricity": 0.00027065,
        "meta_inclination": 0.0289,
        "meta_ra_of_asc_node": 47.8099,
        "meta_arg_of_pericenter": 224.9599,
        "meta_mean_anomaly": 43.4335,
        "meta_ephemeris_type": 0,
        "meta_classification_type": "U",
        "meta_norad_cat_id": 39122,
        "meta_element_set_no": 999,
        "meta_rev_at_epoch": 4662,
        "meta_bstar": 0,
        "meta_mean_motion_dot": 1.2e-07,
        "meta_mean_motion_ddot": 0,
        "tle_line1": "1 39122U 13012A   25352.95884007  .00000012  00000+0  00000+0 0  9993",
        "tle_line2": "2 39122   0.0289  47.8099 0002706 224.9599  43.4335  1.00272954 46620"
      },
      "geometry": {
        "type": "Point",
        "coordinates": [
          76.27958355882147,
          0.03397190171431405
        ]
      }
    },
    {
      "type": "Feature",
      "properties": {
        "norad_id": 39163,
        "name": "EUTELSAT 7B",
        "group": "eutelsat",
        "lat": -0.03960493913484595,
        "lon": -159.97733242296786,
        "alt_km": 35796.367599986545,
        "timestamp": "2025-12-19T06:59:43.575262+00:00",
        "meta_object_name": "EUTELSAT 7B",
        "meta_object_id": "2013-022A",
        "meta_epoch": "2025-12-18T20:10:37.572960",
        "meta_mean_motion": 1.00269498,
        "meta_eccentricity": 0.00042706,
        "meta_inclination": 0.0652,
        "meta_ra_of_asc_node": 356.1104,
        "meta_arg_of_pericenter": 326.7712,
        "meta_mean_anomaly": 74.4777,
        "meta_ephemeris_type": 0,
        "meta_classification_type": "U",
        "meta_norad_cat_id": 39163,
        "meta_element_set_no": 999,
        "meta_rev_at_epoch": 4613,
        "meta_bstar": 0,
        "meta_mean_motion_dot": 7.3e-07,
        "meta_mean_motion_ddot": 0,
        "tle_line1": "1 39163U 13022A   25352.84071265  .00000073  00000+0  00000+0 0  9998",
        "tle_line2": "2 39163   0.0652 356.1104 0004270 326.7712  74.4777  1.00269498 46137"
      },
      "geometry": {
        "type": "Point",
        "coordinates": [
          -159.97733242296786,
          -0.03960493913484595
        ]
      }
    },
    {
      "type": "Feature",
      "properties": {
        "norad_id": 39612,
        "name": "EXPRESS-AT1",
        "group": "eutelsat",
        "lat": -0.03452212659847625,
        "lon": -110.93538279110179,
        "alt_km": 35787.58764913778,
        "timestamp": "2025-12-19T06:59:43.575281+00:00",
        "meta_object_name": "EXPRESS-AT1",
        "meta_object_id": "2014-010A",
        "meta_epoch": "2025-12-18T20:24:36.234432",
        "meta_mean_motion": 1.00271181,
        "meta_eccentricity": 5.914e-05,
        "meta_inclination": 0.0193,
        "meta_ra_of_asc_node": 300.181,
        "meta_arg_of_pericenter": 185.8396,
        "meta_mean_anomaly": 323.8349,
        "meta_ephemeris_type": 0,
        "meta_classification_type": "U",
        "meta_norad_cat_id": 39612,
        "meta_element_set_no": 999,
        "meta_rev_at_epoch": 4301,
        "meta_bstar": 0,
        "meta_mean_motion_dot": 1.04e-06,
        "meta_mean_motion_ddot": 0,
        "tle_line1": "1 39612U 14010A   25352.85041938  .00000104  00000+0  00000+0 0  9995",
        "tle_line2": "2 39612   0.0193 300.1810 0000591 185.8396 323.8349  1.00271181 43015"
      },
      "geometry": {
        "type": "Point",
        "coordinates": [
          -110.93538279110179,
          -0.03452212659847625
        ]
      }
    },
    {
      "type": "Feature",
      "properties": {
        "norad_id": 39613,
        "name": "EXPRESS-AT2",
        "group": "eutelsat",
        "lat": 0.004452015649478749,
        "lon": -27.07291257738431,
        "alt_km": 35783.08201939658,
        "timestamp": "2025-12-19T06:59:43.575294+00:00",
        "meta_object_name": "EXPRESS-AT2",
        "meta_object_id": "2014-010B",
        "meta_epoch": "2025-12-18T22:31:16.603104",
        "meta_mean_motion": 1.00271791,
        "meta_eccentricity": 0.00010065,
        "meta_inclination": 0.013,
        "meta_ra_of_asc_node": 301.9106,
        "meta_arg_of_pericenter": 346.7821,
        "meta_mean_anomaly": 276.777,
        "meta_ephemeris_type": 0,
        "meta_classification_type": "U",
        "meta_norad_cat_id": 39613,
        "meta_element_set_no": 999,
        "meta_rev_at_epoch": 4269,
        "meta_bstar": 0,
        "meta_mean_motion_dot": -2.56e-06,
        "meta_mean_motion_ddot": 0,
        "tle_line1": "1 39613U 14010B   25352.93838661 -.00000256  00000+0  00000+0 0  9991",
        "tle_line2": "2 39613   0.0130 301.9106 0001006 346.7821 276.7770  1.00271791 42691"
      },
      "geometry": {
        "type": "Point",
        "coordinates": [
          -27.07291257738431,
          0.004452015649478749
        ]
      }
    }
  ]
}